{"type": "FeatureCollection", "features": [ {"type": "Feature", "properties": {"norad_id": 58654, "name": "BEIDOU-3 M28 (C50)", "group": "beidou", "lat": 40.43516075444869, "lon": -146.9680769690361, "alt_km": 21528.062524268356, "timestamp": "2025-12-09T09:46:47.910916+00:00", "meta": {"OBJECT_NAME": "BEIDOU-3 M28 (C50)", "OBJECT_ID": "2023-207A", "EPOCH": "2025-12-07T14:31:49.044864", "MEAN_MOTION": 1.86229593, "ECCENTRICITY": 0.0002234, "INCLINATION": 55.5801, "RA_OF_ASC_NODE": 68.7753, "ARG_OF_PERICENTER": 268.0479, "MEAN_ANOMALY": 91.9457, "EPHEMERIS_TYPE": 0, "CLASSIFICATION_TYPE": "U", "NORAD_CAT_ID": 58654, "ELEMENT_SET_NO": 999, "REV_AT_EPOCH": 1327, "BSTAR": 0, "MEAN_MOTION_DOT": -4.6e-07, "MEAN_MOTION_DDOT": 0}, "tle": {"line1": "1 58654U 23207A   25341.60542876 -.00000046  00000+0  00000+0 0  9994", "line2": "2 58654  55.5801  68.7753 0002234 268.0479  91.9457  1.86229593 13270"}}, "geometry": {"type": "Point", "coordinates": [-146.9680769690361, 40.43516075444869]}}, {"type": "Feature", "properties": {"norad_id": 58655, "name": "BEIDOU-3 M26 (C48)", "group": "beidou", "lat": -55.12238733829939, "lon": -32.11846471391536, "alt_km": 21523.899552381376, "timestamp": "2025-12-09T09:46:47.910927+00:00", "meta": {"OBJECT_NAME": "BEIDOU-3 M26 (C48)", "OBJECT_ID": "2023-207B", "EPOCH": "2025-12-08T11:26:54.595392", "MEAN_MOTION": 1.8623113, "ECCENTRICITY": 0.00036549, "INCLINATION": 55.583, "RA_OF_ASC_NODE": 68.7321, "ARG_OF_PERICENTER": 253.8899, "MEAN_ANOMALY": 106.0912, "EPHEMERIS_TYPE": 0, "CLASSIFICATION_TYPE": "U", "NORAD_CAT_ID": 58655, "ELEMENT_SET_NO": 999, "REV_AT_EPOCH": 1327, "BSTAR": 0, "MEAN_MOTION_DOT": -4.7e-07, "MEAN_MOTION_DDOT": 0}, "tle": {"line1": "1 58655U 23207B   25342.47702078 -.00000047  00000+0  00000+0 0  9994", "line2": "2 58655  55.5830  68.7321 0003654 253.8899 106.0912  1.86231130 13273"}}, "geometry": {"type": "Point", "coordinates": [-32.11846471391536, -55.12238733829939]}}, {"type": "Feature", "properties": {"norad_id": 61186, "name": "BEIDOU-3 M25 (C47)", "group": "beidou", "lat": 16.84096880899908, "lon": -38.78336680337911, "alt_km": 21524.8530421117, "timestamp": "2025-12-09T09:46:47.910939+00:00", "meta": {"OBJECT_NAME": "BEIDOU-3 M25 (C47)", "OBJECT_ID": "2024-168B", "EPOCH": "2025-12-08T20:08:08.310912", "MEAN_MOTION": 1.8622988, "ECCENTRICITY": 0.00054406, "INCLINATION": 54.6453, "RA_OF_ASC_NODE": 308.8544, "ARG_OF_PERICENTER": 295.846, "MEAN_ANOMALY": 63.7287, "EPHEMERIS_TYPE": 0, "CLASSIFICATION_TYPE": "U", "NORAD_CAT_ID": 61186, "ELEMENT_SET_NO": 999, "REV_AT_EPOCH": 823, "BSTAR": 0, "MEAN_MOTION_DOT": -7.5e-07, "MEAN_MOTION_DDOT": 0}, "tle": {"line1": "1 61186U 24168B   25342.83898508 -.00000075  00000+0  00000+0 0  9999", "line2": "2 61186  54.6453 308.8544 0005440 295.8460  63.7287  1.86229880  8230"}}, "geometry": {"type": "Point", "coordinates": [-38.78336680337911, 16.84096880899908]}}, {"type": "Feature", "properties": {"norad_id": 61187, "name": "BEIDOU-3 M27 (C49)", "group": "beidou", "lat": 19.585717966053696, "lon": 114.1755918172245, "alt_km": 21532.28963032282, "timestamp": "2025-12-09T09:46:47.910951+00:00", "meta": {"OBJECT_NAME": "BEIDOU-3 M27 (C49)", "OBJECT_ID": "2024-168C", "EPOCH": "2025-12-08T15:20:42.241056", "MEAN_MOTION": 1.86230009, "ECCENTRICITY": 0.00023172, "INCLINATION": 54.641, "RA_OF_ASC_NODE": 308.845, "ARG_OF_PERICENTER": 333.6022, "MEAN_ANOMALY": 27.0867, "EPHEMERIS_TYPE": 0, "CLASSIFICATION_TYPE": "U", "NORAD_CAT_ID": 61187, "ELEMENT_SET_NO": 999, "REV_AT_EPOCH": 571, "BSTAR": 0, "MEAN_MOTION_DOT": -7.4e-07, "MEAN_MOTION_DDOT": 0}, "tle": {"line1": "1 61187U 24168C   25342.63937779 -.00000074  00000+0  00000+0 0  9991", "line2": "2 61187  54.6410 308.8450 0002317 333.6022  27.0867  1.86230009  5717"}}, "geometry": {"type": "Point", "coordinates": [114.1755918172245, 19.585717966053696]}}]}